[
  {
    "OBJECT_NAME": "STARLINK-34036",
    "OBJECT_ID": "25098V",
    "EPOCH": "2025-11-11T03:39:24.305760",
    "MEAN_MOTION": 14.98349728,
    "ECCENTRICITY": 0.0003,
    "INCLINATION": 70.0012,
    "RA_OF_ASC_NODE": 213.4522,
    "ARG_OF_PERICENTER": 271.9009,
    "MEAN_ANOMALY": 88.1806,
    "EPHEMERIS_TYPE": 0,
    "CLASSIFICATION_TYPE": "U",
    "NORAD_CAT_ID": 63945,
    "ELEMENT_SET_NO": 999,
    "REV_AT_EPOCH": 2879,
    "BSTAR": 0.0006786299999999999,
    "MEAN_MOTION_DOT": 8.018e-05,
    "MEAN_MOTION_DDOT": 0.0,
    "TLE_LINE1": "1 63945U 25098V   25315.15236465  .00008018  00000+0  67863-3 0  9998",
    "TLE_LINE2": "2 63945  70.0012 213.4522 0003000 271.9009  88.1806 14.98349728 28791",
    "COMMENT": "Grouped by shell and plane from TLE"
  },
  {
    "OBJECT_NAME": "STARLINK-34039",
    "OBJECT_ID": "25098W",
    "EPOCH": "2025-11-11T03:33:25.184160",
    "MEAN_MOTION": 14.98323135,
    "ECCENTRICITY": 0.0002664,
    "INCLINATION": 70.0009,
    "RA_OF_ASC_NODE": 213.4363,
    "ARG_OF_PERICENTER": 274.6402,
    "MEAN_ANOMALY": 85.4452,
    "EPHEMERIS_TYPE": 0,
    "CLASSIFICATION_TYPE": "U",
    "NORAD_CAT_ID": 63946,
    "ELEMENT_SET_NO": 999,
    "REV_AT_EPOCH": 2879,
    "BSTAR": 0.0011111,
    "MEAN_MOTION_DOT": 0.00013187,
    "MEAN_MOTION_DDOT": 0.0,
    "TLE_LINE1": "1 63946U 25098W   25315.14820815  .00013187  00000+0  11111-2 0  9993",
    "TLE_LINE2": "2 63946  70.0009 213.4363 0002664 274.6402  85.4452 14.98323135 28794",
    "COMMENT": "Grouped by shell and plane from TLE"
  },
  {
    "OBJECT_NAME": "STARLINK-34034",
    "OBJECT_ID": "25098X",
    "EPOCH": "2025-11-11T03:33:09.203616",
    "MEAN_MOTION": 14.98355355,
    "ECCENTRICITY": 0.0003042,
    "INCLINATION": 70.0014,
    "RA_OF_ASC_NODE": 213.4352,
    "ARG_OF_PERICENTER": 269.4517,
    "MEAN_ANOMALY": 90.6294,
    "EPHEMERIS_TYPE": 0,
    "CLASSIFICATION_TYPE": "U",
    "NORAD_CAT_ID": 63947,
    "ELEMENT_SET_NO": 999,
    "REV_AT_EPOCH": 2879,
    "BSTAR": 0.00055372,
    "MEAN_MOTION_DOT": 6.524e-05,
    "MEAN_MOTION_DDOT": 0.0,
    "TLE_LINE1": "1 63947U 25098X   25315.14802319  .00006524  00000+0  55372-3 0  9998",
    "TLE_LINE2": "2 63947  70.0014 213.4352 0003042 269.4517  90.6294 14.98355355 28790",
    "COMMENT": "Grouped by shell and plane from TLE"
  },
  {
    "OBJECT_NAME": "STARLINK-33983",
    "OBJECT_ID": "25098Y",
    "EPOCH": "2025-11-11T03:03:20.508480",
    "MEAN_MOTION": 14.98354436,
    "ECCENTRICITY": 0.0002794,
    "INCLINATION": 70.0012,
    "RA_OF_ASC_NODE": 213.3617,
    "ARG_OF_PERICENTER": 275.7532,
    "MEAN_ANOMALY": 84.3308,
    "EPHEMERIS_TYPE": 0,
    "CLASSIFICATION_TYPE": "U",
    "NORAD_CAT_ID": 63948,
    "ELEMENT_SET_NO": 999,
    "REV_AT_EPOCH": 2879,
    "BSTAR": 0.0010018000000000002,
    "MEAN_MOTION_DOT": 0.00011888,
    "MEAN_MOTION_DDOT": 0.0,
    "TLE_LINE1": "1 63948U 25098Y   25315.12732070  .00011888  00000+0  10018-2 0  9999",
    "TLE_LINE2": "2 63948  70.0012 213.3617 0002794 275.7532  84.3308 14.98354436 28797",
    "COMMENT": "Grouped by shell and plane from TLE"
  },
  {
    "OBJECT_NAME": "STARLINK-33993",
    "OBJECT_ID": "25098Z",
    "EPOCH": "2025-11-11T04:09:25.156512",
    "MEAN_MOTION": 14.98353197,
    "ECCENTRICITY": 0.0002466,
    "INCLINATION": 70.0009,
    "RA_OF_ASC_NODE": 213.1092,
    "ARG_OF_PERICENTER": 275.5097,
    "MEAN_ANOMALY": 84.5781,
    "EPHEMERIS_TYPE": 0,
    "CLASSIFICATION_TYPE": "U",
    "NORAD_CAT_ID": 63949,
    "ELEMENT_SET_NO": 999,
    "REV_AT_EPOCH": 2880,
    "BSTAR": 0.0009116800000000001,
    "MEAN_MOTION_DOT": 0.00010808,
    "MEAN_MOTION_DDOT": 0.0,
    "TLE_LINE1": "1 63949U 25098Z   25315.17320783  .00010808  00000+0  91168-3 0  9996",
    "TLE_LINE2": "2 63949  70.0009 213.1092 0002466 275.5097  84.5781 14.98353197 28801",
    "COMMENT": "Grouped by shell and plane from TLE"
  },
  {
    "OBJECT_NAME": "STARLINK-33962",
    "OBJECT_ID": "25098AA",
    "EPOCH": "2025-11-11T02:45:03.780576",
    "MEAN_MOTION": 14.98368894,
    "ECCENTRICITY": 0.0002847,
    "INCLINATION": 70.0007,
    "RA_OF_ASC_NODE": 213.315,
    "ARG_OF_PERICENTER": 267.5963,
    "MEAN_ANOMALY": 92.487,
    "EPHEMERIS_TYPE": 0,
    "CLASSIFICATION_TYPE": "U",
    "NORAD_CAT_ID": 63950,
    "ELEMENT_SET_NO": 999,
    "REV_AT_EPOCH": 2879,
    "BSTAR": 0.0018028,
    "MEAN_MOTION_DOT": 0.00021505,
    "MEAN_MOTION_DDOT": 0.0,
    "TLE_LINE1": "1 63950U 25098AA  25315.11462709  .00021505  00000+0  18028-2 0  9996",
    "TLE_LINE2": "2 63950  70.0007 213.3150 0002847 267.5963  92.4870 14.98368894 28799",
    "COMMENT": "Grouped by shell and plane from TLE"
  },
  {
    "OBJECT_NAME": "STARLINK-33998",
    "OBJECT_ID": "25098AB",
    "EPOCH": "2025-11-11T02:51:05.201280",
    "MEAN_MOTION": 14.98345232,
    "ECCENTRICITY": 0.0002525,
    "INCLINATION": 70.0021,
    "RA_OF_ASC_NODE": 213.331,
    "ARG_OF_PERICENTER": 283.4144,
    "MEAN_ANOMALY": 76.6733,
    "EPHEMERIS_TYPE": 0,
    "CLASSIFICATION_TYPE": "U",
    "NORAD_CAT_ID": 63951,
    "ELEMENT_SET_NO": 999,
    "REV_AT_EPOCH": 2879,
    "BSTAR": 0.00097628,
    "MEAN_MOTION_DOT": 0.00011579,
    "MEAN_MOTION_DDOT": 0.0,
    "TLE_LINE1": "1 63951U 25098AB  25315.11881020  .00011579  00000+0  97628-3 0  9992",
    "TLE_LINE2": "2 63951  70.0021 213.3310 0002525 283.4144  76.6733 14.98345232 28798",
    "COMMENT": "Grouped by shell and plane from TLE"
  }
]